IRIDIUM 64 [+]          
1 25287U 98021C   14172.48863603  .00000133  00000-0  40302-4 0  7737
2 25287  86.3969 320.2610 0002368 114.5405 245.6037 14.34218253848527
IRIDIUM 65 [+]          
1 25288U 98021D   14172.50783351  .00000167  00000-0  52463-4 0  8045
2 25288  86.3967 320.1765 0002076 107.4882 319.0970 14.34214380848543
IRIDIUM 66 [+]          
1 25289U 98021E   14172.51416494  .00000104  00000-0  29986-4 0  7503
2 25289  86.3966 320.0866 0002208 106.6051 319.9142 14.34214808848545
IRIDIUM 67 [+]          
1 25290U 98021F   14172.43787383  .00000055  00000-0  12440-4 0  6000
2 25290  86.3966 320.2383 0002301 110.1644 249.9799 14.34215022848544
IRIDIUM 68 [+]          
1 25291U 98021G   14172.44422201  .00000103  00000-0  29601-4 0  8213
2 25291  86.3968 320.3339 0002282 106.1861 253.9586 14.34215152848513
IRIDIUM 69 [-]          
1 25319U 98026A   14172.47904326  .00000199  00000-0  59279-4 0  6223
2 25319  86.3988 344.8109 0001122 149.0333 262.5590 14.38081021846108
IRIDIUM 71 [-]          
1 25320U 98026B   14172.45036021  .00000190  00000-0  55505-4 0  3283
2 25320  86.3974 341.2470 0001660  46.3634   7.4614 14.38561165846483
IRIDIUM 70 [+]          
1 25342U 98032A   14172.48166591  .00000160  00000-0  49988-4 0  8452
2 25342  86.3973 320.5083 0002180 104.4953 317.9744 14.34215727842625
IRIDIUM 72 [+]          
1 25343U 98032B   14172.46838735  .00000159  00000-0  49614-4 0  8439
2 25343  86.3967 320.1974 0002228 108.6872 310.7055 14.34215097842629
IRIDIUM 73 [-]          
1 25344U 98032C   14172.47673961  .00000242  00000-0  59258-4 0  7212
2 25344  86.4439 304.1019 0003061 108.9576 319.2275 14.48299732849490
IRIDIUM 74 [S]          
1 25345U 98032D   14172.49758644  .00000213  00000-0  57587-4 0  8893
2 25345  86.4479 320.4814 0002034 127.3969 296.7414 14.43001273845327
IRIDIUM 75 [+]          
1 25346U 98032E   14172.47499865  .00000140  00000-0  42999-4 0  8642
2 25346  86.3969 320.4077 0002274 108.6498 312.1443 14.34215484843196
IRIDIUM 3 [+]           
1 25431U 98048A   14172.45880510  .00000045  00000-0  89358-5 0  7704
2 25431  86.3958 352.0169 0002103 102.4765 315.2747 14.34215649829134
IRIDIUM 76 [+]          
1 25432U 98048B   14172.47713002  .00000040  00000-0  72853-5 0  7031
2 25432  86.3956 351.7983 0002338 102.2362 311.8582 14.34215728829120
IRIDIUM 82 [+]          
1 25467U 98051A   14172.43597274  .00000243  00000-0  79869-4 0  9489
2 25467  86.3991 118.4314 0002101 107.3664 252.7762 14.34215018830130
IRIDIUM 81 [+]          
1 25468U 98051B   14172.42959337  .00000203  00000-0  65545-4 0  7650
2 25468  86.3984 118.1400 0002321 101.4146 258.7311 14.34225093826359
IRIDIUM 80 [+]          
1 25469U 98051C   14172.29253274  .00000176  00000-0  55715-4 0  7762
2 25469  86.3990 118.4339 0002324 101.5030   9.5242 14.34216606826330
IRIDIUM 77 [+]          
1 25471U 98051E   14172.37695795  .00000066  00000-0  16397-4 0  9608
2 25471  86.3981 118.0810 0002321  96.1232  57.7191 14.34215284831541
IRIDIUM 2 [-]           
1 25527U 98066A   14172.45381465  .00002478  00000-0  15988-3 0  2607
2 25527  85.5425 313.2631 0011337 122.7061 298.1418 15.07742173852774
IRIDIUM 86 [+]          
1 25528U 98066B   14172.30569161  .00000269  00000-0  88852-4 0   181
2 25528  86.3971  86.3118 0002141  95.5692 264.5748 14.34214572822864
IRIDIUM 84 [+]          
1 25530U 98066D   14172.33740414  .00000259  00000-0  85596-4 0  6658
2 25530  86.3974  86.4446 0002335 100.6255 259.5204 14.34215235820500
IRIDIUM 83 [+]          
1 25531U 98066E   14172.43888442  .00000259  00000-0  85327-4 0  7950
2 25531  86.3976  86.4831 0002349 100.4899 259.6561 14.34215184817874
IRIDIUM 20 [+]          
1 25577U 98074A   14172.49838812  .00000039  00000-0  69890-5 0  6785
2 25577  86.3955 351.7266 0002199 106.1109 254.0329 14.34216276811969
IRIDIUM 11 [+]          
1 25578U 98074B   14172.51534162  .00000033  00000-0  47650-5 0  9169
2 25578  86.3953 351.9319 0002082 108.9939 273.2374 14.34216154820936
IRIDIUM 14 [S]          
1 25777U 99032A   14172.51053262  .00000295  00000-0  63736-4 0  9704
2 25777  86.5150 320.2451 0002384 110.4447 316.7907 14.54934597798053
IRIDIUM 21 [+]          
1 25778U 99032B   14172.46161554  .00000159  00000-0  49736-4 0  7748
2 25778  86.3968 320.2922 0002471 104.0511 313.1312 14.34218529791636
IRIDIUM 91 [+]          
1 27372U 02005A   14172.23670715  .00000142  00000-0  43506-4 0  3728
2 27372  86.3968  24.1088 0002142 142.5923 355.1595 14.34217023655119
IRIDIUM 90 [S]          
1 27373U 02005B   14172.32913913  .00000316  00000-0  88481-4 0  3723
2 27373  86.4486  86.4679 0004121  75.3869 284.7789 14.42953968653905
IRIDIUM 94 [S]          
1 27374U 02005C   14172.46596252  .00000104  00000-0  30122-4 0  5391
2 27374  86.3955 352.0629 0003865  64.7171 324.5632 14.34216783659471
IRIDIUM 95 [+]          
1 27375U 02005D   14172.17833212  .00000119  00000-0  35570-4 0  3329
2 27375  86.3967  23.9215 0002261 101.4280 258.7170 14.34214463654393
IRIDIUM 96 [S]          
1 27376U 02005E   14172.29591934  .00000277  00000-0  91786-4 0  5356
2 27376  86.3993  55.2508 0005378 101.9072 258.2727 14.34211950659613
IRIDIUM 97 [+]          
1 27450U 02031A   14172.47352138  .00000215  00000-0  69805-4 0  2513
2 27450  86.3960  55.2587 0002329 132.1324 228.0070 14.34216406633750
IRIDIUM 98 [S]          
1 27451U 02031B   14172.30660480  .00000233  00000-0  63768-4 0  3667
2 27451  86.4469 118.6929 0002952 117.4718 354.2928 14.42961760634759
